start=new Date('2023-01-13T00:00:00.000Z').valueOf();
sats=[{"PERIAPSIS":"538.006","MEAN_MOTION":"15.08826025","SEMIMAJOR_AXIS":"6917.923","GP_ID":"222890861","ARG_OF_PERICENTER":"40.7931","COUNTRY_CODE":"US","OBJECT_NAME":"STARLINK-3905","FILE":"3742227","NORAD_CAT_ID":"52495","OBJECT_TYPE":"PAYLOAD","CENTER_NAME":"EARTH","LAUNCH_DATE":"2022-05-06","REV_AT_EPOCH":"3849","INCLINATION":"53.2143","CLASSIFICATION_TYPE":"U","OBJECT_ID":"2022-049AW","EPOCH":"2023-01-12T18:38:38.990688","MEAN_ELEMENT_THEORY":"SGP4","TIME_SYSTEM":"UTC","ECCENTRICITY":"0.00025760","TLE_LINE1":"1 52495U 22049AW  23012.77684017 -.00000756  00000-0 -29385-4 0  9991","RCS_SIZE":"LARGE","EPHEMERIS_TYPE":"0","DECAY_DATE":null,"BSTAR":"-0.00002938500000","RA_OF_ASC_NODE":"180.2661","MEAN_MOTION_DDOT":"0.0000000000000","MEAN_ANOMALY":"319.3254","APOAPSIS":"541.570","PERIOD":"95.438","TLE_LINE2":"2 52495  53.2143 180.2661 0002576  40.7931 319.3254 15.08826025 38491","SITE":"AFETR","ELEMENT_SET_NO":"999","REF_FRAME":"TEME","MEAN_MOTION_DOT":"-0.00000756"},{"RA_OF_ASC_NODE":"174.8556","BSTAR":"0.00001088600000","DECAY_DATE":null,"EPHEMERIS_TYPE":"0","RCS_SIZE":"LARGE","TLE_LINE1":"1 52496U 22049AX  23012.86377430 -.00000115  00000-0  10886-4 0  9994","MEAN_MOTION_DOT":"-0.00000115","REF_FRAME":"TEME","ELEMENT_SET_NO":"999","SITE":"AFETR","TLE_LINE2":"2 52496  53.2174 174.8556 0003079  46.5205 313.6043 15.08837665 38579","MEAN_ANOMALY":"313.6043","APOAPSIS":"541.883","PERIOD":"95.438","MEAN_MOTION_DDOT":"0.0000000000000","CENTER_NAME":"EARTH","OBJECT_TYPE":"PAYLOAD","FILE":"3742227","NORAD_CAT_ID":"52496","OBJECT_NAME":"STARLINK-3871","COUNTRY_CODE":"US","ARG_OF_PERICENTER":"46.5205","GP_ID":"222891109","SEMIMAJOR_AXIS":"6917.888","MEAN_MOTION":"15.08837665","PERIAPSIS":"537.623","TIME_SYSTEM":"UTC","ECCENTRICITY":"0.00030790","MEAN_ELEMENT_THEORY":"SGP4","EPOCH":"2023-01-12T20:43:50.099520","OBJECT_ID":"2022-049AX","CLASSIFICATION_TYPE":"U","INCLINATION":"53.2174","LAUNCH_DATE":"2022-05-06","REV_AT_EPOCH":"3857"},{"OBJECT_ID":"2022-049AY","MEAN_ELEMENT_THEORY":"SGP4","EPOCH":"2023-01-12T20:03:27.314784","ECCENTRICITY":"0.00036780","TIME_SYSTEM":"UTC","INCLINATION":"53.2145","LAUNCH_DATE":"2022-05-06","REV_AT_EPOCH":"3850","CLASSIFICATION_TYPE":"U","OBJECT_NAME":"STARLINK-3884","ARG_OF_PERICENTER":"44.2202","COUNTRY_CODE":"US","CENTER_NAME":"EARTH","FILE":"3742227","NORAD_CAT_ID":"52497","OBJECT_TYPE":"PAYLOAD","PERIAPSIS":"537.273","MEAN_MOTION":"15.08816374","SEMIMAJOR_AXIS":"6917.953","GP_ID":"222889861","ELEMENT_SET_NO":"999","SITE":"AFETR","MEAN_MOTION_DOT":"-0.00001407","REF_FRAME":"TEME","MEAN_ANOMALY":"315.9083","APOAPSIS":"542.362","PERIOD":"95.439","MEAN_MOTION_DDOT":"0.0000000000000","TLE_LINE2":"2 52497  53.2145 180.0087 0003678  44.2202 315.9083 15.08816374 38509","BSTAR":"-0.00007031800000","DECAY_DATE":null,"RA_OF_ASC_NODE":"180.0087","TLE_LINE1":"1 52497U 22049AY  23012.83573281 -.00001407  00000-0 -70318-4 0  9996","RCS_SIZE":"LARGE","EPHEMERIS_TYPE":"0"},{"TLE_LINE1":"1 52498U 22049AZ  23012.81087839 -.00002721  00000-0 -15297-3 0  9998","EPHEMERIS_TYPE":"0","RCS_SIZE":"LARGE","BSTAR":"-0.00015297000000","DECAY_DATE":null,"RA_OF_ASC_NODE":"170.0985","PERIOD":"95.439","APOAPSIS":"541.462","MEAN_ANOMALY":"314.3135","MEAN_MOTION_DDOT":"0.0000000000000","TLE_LINE2":"2 52498  53.2176 170.0985 0002387  45.8053 314.3135 15.08818624 38632","ELEMENT_SET_NO":"999","SITE":"AFETR","MEAN_MOTION_DOT":"-0.00002721","REF_FRAME":"TEME","MEAN_MOTION":"15.08818624","SEMIMAJOR_AXIS":"6917.946","PERIAPSIS":"538.159","GP_ID":"222890111","OBJECT_NAME":"STARLINK-3925","COUNTRY_CODE":"US","ARG_OF_PERICENTER":"45.8053","CENTER_NAME":"EARTH","OBJECT_TYPE":"PAYLOAD","FILE":"3742227","NORAD_CAT_ID":"52498","CLASSIFICATION_TYPE":"U","LAUNCH_DATE":"2022-05-06","REV_AT_EPOCH":"3863","INCLINATION":"53.2176","MEAN_ELEMENT_THEORY":"SGP4","EPOCH":"2023-01-12T19:27:39.892896","OBJECT_ID":"2022-049AZ","TIME_SYSTEM":"UTC","ECCENTRICITY":"0.00023870"},{"MEAN_MOTION_DOT":"0.00001167","REF_FRAME":"TEME","ELEMENT_SET_NO":"999","SITE":"AFETR","TLE_LINE2":"2 52499  53.2166 180.3224 0003784  42.7910 317.3376 15.08837286 38491","APOAPSIS":"542.371","MEAN_ANOMALY":"317.3376","PERIOD":"95.438","MEAN_MOTION_DDOT":"0.0000000000000","RA_OF_ASC_NODE":"180.3224","BSTAR":"0.00009144200000","DECAY_DATE":null,"RCS_SIZE":"LARGE","EPHEMERIS_TYPE":"0","TLE_LINE1":"1 52499U 22049BA  23012.76580052  .00001167  00000-0  91442-4 0  9996","TIME_SYSTEM":"UTC","ECCENTRICITY":"0.00037840","OBJECT_ID":"2022-049BA","EPOCH":"2023-01-12T18:22:45.164928","MEAN_ELEMENT_THEORY":"SGP4","LAUNCH_DATE":"2022-05-06","REV_AT_EPOCH":"3849","INCLINATION":"53.2166","CLASSIFICATION_TYPE":"U","CENTER_NAME":"EARTH","FILE":"3742227","NORAD_CAT_ID":"52499","OBJECT_TYPE":"PAYLOAD","OBJECT_NAME":"STARLINK-3894","ARG_OF_PERICENTER":"42.7910","COUNTRY_CODE":"US","GP_ID":"222891361","PERIAPSIS":"537.136","SEMIMAJOR_AXIS":"6917.889","MEAN_MOTION":"15.08837286"},{"ECCENTRICITY":"0.00027120","TIME_SYSTEM":"UTC","OBJECT_ID":"2022-049BB","MEAN_ELEMENT_THEORY":"SGP4","EPOCH":"2023-01-12T20:57:45.417312","REV_AT_EPOCH":"3864","LAUNCH_DATE":"2022-05-06","INCLINATION":"53.2169","CLASSIFICATION_TYPE":"U","NORAD_CAT_ID":"52500","FILE":"3742227","OBJECT_TYPE":"PAYLOAD","CENTER_NAME":"EARTH","ARG_OF_PERICENTER":"38.0168","COUNTRY_CODE":"US","OBJECT_NAME":"STARLINK-3866","GP_ID":"222891609","PERIAPSIS":"537.925","SEMIMAJOR_AXIS":"6917.936","MEAN_MOTION":"15.08821715","REF_FRAME":"TEME","MEAN_MOTION_DOT":"-0.00002027","SITE":"AFETR","ELEMENT_SET_NO":"999","TLE_LINE2":"2 52500  53.2169 169.8222 0002712  38.0168 322.1015 15.08821715 38641","MEAN_MOTION_DDOT":"0.0000000000000","MEAN_ANOMALY":"322.1015","APOAPSIS":"541.677","PERIOD":"95.439","RA_OF_ASC_NODE":"169.8222","DECAY_DATE":null,"BSTAR":"-0.00010932000000","RCS_SIZE":"LARGE","EPHEMERIS_TYPE":"0","TLE_LINE1":"1 52500U 22049BB  23012.87344233 -.00002027  00000-0 -10932-3 0  9992"},{"APOAPSIS":"541.944","MEAN_ANOMALY":"313.7852","PERIOD":"95.438","MEAN_MOTION_DDOT":"0.0000000000000","TLE_LINE2":"2 52501  53.2138 180.3335 0003160  46.3402 313.7852 15.08835966 38493","ELEMENT_SET_NO":"999","SITE":"AFETR","MEAN_MOTION_DOT":"-0.00000876","REF_FRAME":"TEME","TLE_LINE1":"1 52501U 22049BC  23012.76307564 -.00000876  00000-0 -36888-4 0  9996","RCS_SIZE":"LARGE","EPHEMERIS_TYPE":"0","BSTAR":"-0.00003688800000","DECAY_DATE":null,"RA_OF_ASC_NODE":"180.3335","REV_AT_EPOCH":"3849","LAUNCH_DATE":"2022-05-06","INCLINATION":"53.2138","CLASSIFICATION_TYPE":"U","OBJECT_ID":"2022-049BC","EPOCH":"2023-01-12T18:18:49.735296","MEAN_ELEMENT_THEORY":"SGP4","ECCENTRICITY":"0.00031600","TIME_SYSTEM":"UTC","PERIAPSIS":"537.572","SEMIMAJOR_AXIS":"6917.893","MEAN_MOTION":"15.08835966","GP_ID":"222890361","OBJECT_NAME":"STARLINK-3907","ARG_OF_PERICENTER":"46.3402","COUNTRY_CODE":"US","CENTER_NAME":"EARTH","FILE":"3742227","NORAD_CAT_ID":"52501","OBJECT_TYPE":"PAYLOAD"},{"MEAN_MOTION_DDOT":"0.0000000000000","PERIOD":"95.437","APOAPSIS":"541.798","MEAN_ANOMALY":"328.6734","TLE_LINE2":"2 52502  53.2186 170.4393 0002985  31.4436 328.6734 15.08844176 38629","SITE":"AFETR","ELEMENT_SET_NO":"999","REF_FRAME":"TEME","MEAN_MOTION_DOT":"-0.00000168","TLE_LINE1":"1 52502U 22049BD  23012.73455046 -.00000168  00000-0  75772-5 0  9992","RCS_SIZE":"LARGE","EPHEMERIS_TYPE":"0","DECAY_DATE":null,"BSTAR":"0.00000757720000","RA_OF_ASC_NODE":"170.4393","LAUNCH_DATE":"2022-05-06","REV_AT_EPOCH":"3862","INCLINATION":"53.2186","CLASSIFICATION_TYPE":"U","OBJECT_ID":"2022-049BD","MEAN_ELEMENT_THEORY":"SGP4","EPOCH":"2023-01-12T17:37:45.159744","ECCENTRICITY":"0.00029850","TIME_SYSTEM":"UTC","PERIAPSIS":"537.668","MEAN_MOTION":"15.08844176","SEMIMAJOR_AXIS":"6917.868","GP_ID":"222890611","ARG_OF_PERICENTER":"31.4436","COUNTRY_CODE":"US","OBJECT_NAME":"STARLINK-3912","FILE":"3742227","NORAD_CAT_ID":"52502","OBJECT_TYPE":"PAYLOAD","CENTER_NAME":"EARTH"},{"EPOCH":"2023-01-12T19:17:04.160832","MEAN_ELEMENT_THEORY":"SGP4","OBJECT_ID":"2022-049BE","ECCENTRICITY":"0.00024610","TIME_SYSTEM":"UTC","CLASSIFICATION_TYPE":"U","LAUNCH_DATE":"2022-05-06","REV_AT_EPOCH":"3863","INCLINATION":"53.2159","OBJECT_NAME":"STARLINK-3861","COUNTRY_CODE":"US","ARG_OF_PERICENTER":"37.0226","CENTER_NAME":"EARTH","OBJECT_TYPE":"PAYLOAD","FILE":"3742227","NORAD_CAT_ID":"52503","SEMIMAJOR_AXIS":"6917.924","MEAN_MOTION":"15.08825730","PERIAPSIS":"538.087","GP_ID":"222890862","ELEMENT_SET_NO":"999","SITE":"AFETR","MEAN_MOTION_DOT":"-0.00000389","REF_FRAME":"TEME","MEAN_ANOMALY":"323.0936","APOAPSIS":"541.492","PERIOD":"95.438","MEAN_MOTION_DDOT":"0.0000000000000","TLE_LINE2":"2 52503  53.2159 170.1371 0002461  37.0226 323.0936 15.08825730 38630","BSTAR":"-0.00000630310000","DECAY_DATE":null,"RA_OF_ASC_NODE":"170.1371","TLE_LINE1":"1 52503U 22049BE  23012.80352038 -.00000389  00000-0 -63031-5 0  9999","EPHEMERIS_TYPE":"0","RCS_SIZE":"LARGE"},{"RCS_SIZE":"LARGE","EPHEMERIS_TYPE":"0","TLE_LINE1":"1 52533U 22051A   23012.92499912  .00000272  00000-0  35172-4 0  9994","RA_OF_ASC_NODE":"259.6002","BSTAR":"0.00003517200000","DECAY_DATE":null,"TLE_LINE2":"2 52533  53.2133 259.6002 0001318  80.7582 279.3559 15.08837258 37562","APOAPSIS":"540.666","PERIOD":"95.438","MEAN_ANOMALY":"279.3559","MEAN_MOTION_DDOT":"0.0000000000000","MEAN_MOTION_DOT":"0.00000272","REF_FRAME":"TEME","ELEMENT_SET_NO":"999","SITE":"AFWTR","GP_ID":"222891362","PERIAPSIS":"538.842","MEAN_MOTION":"15.08837258","SEMIMAJOR_AXIS":"6917.889","CENTER_NAME":"EARTH","NORAD_CAT_ID":"52533","FILE":"3742227","OBJECT_TYPE":"PAYLOAD","OBJECT_NAME":"STARLINK-3951","ARG_OF_PERICENTER":"80.7582","COUNTRY_CODE":"US","LAUNCH_DATE":"2022-05-13","REV_AT_EPOCH":"3756","INCLINATION":"53.2133","CLASSIFICATION_TYPE":"U","TIME_SYSTEM":"UTC","ECCENTRICITY":"0.00013180","OBJECT_ID":"2022-051A","MEAN_ELEMENT_THEORY":"SGP4","EPOCH":"2023-01-12T22:11:59.923968"}];
